IRIDIUM 156             
1 43576U 18061H   26196.09461205  .00000053  00000+0  11879-4 0  9999
2 43576  86.3936  45.0551 0002096  92.5926 267.5509 14.34217624417372
IRIDIUM 164             
1 43577U 18061J   26196.07558557  .00000145  00000+0  44658-4 0  9998
2 43577  86.3938  45.1040 0002325  89.3076 270.8386 14.34218278417415
IRIDIUM 159             
1 43578U 18061K   26196.11363958  .00000051  00000+0  11126-4 0  9993
2 43578  86.3935  45.0244 0002132  85.3310 274.8129 14.34217458417385
IRIDIUM 180             
1 43922U 19002A   26195.90383058  .00000109  00000+0  31961-4 0  9994
2 43922  86.3991 342.0108 0002185  90.7939 269.3507 14.34218389392963
IRIDIUM 176             
1 43923U 19002B   26195.88992359  .00000387  00000+0  57473-4 0  9996
2 43923  86.6111 341.9561 0002333  89.9278 270.2207 14.72248840403321
IRIDIUM 168             
1 43924U 19002C   26195.89748738 -.00000052  00000+0 -25670-4 0  9993
2 43924  86.3989 342.0916 0002104  91.5494 268.5943 14.34216547392942
IRIDIUM 173             
1 43925U 19002D   26195.88480343 -.00000076  00000+0 -34184-4 0  9994
2 43925  86.3987 341.9850 0002025  91.6799 268.4629 14.34216472392922
IRIDIUM 169             
1 43926U 19002E   26196.00495411  .00000036  00000+0  51372-5 0  9995
2 43926  86.4221  13.5595 0001881 103.1969 256.9439 14.38613205394225
IRIDIUM 172             
1 43927U 19002F   26195.94822941  .00000015  00000+0 -18103-5 0  9993
2 43927  86.3988 341.9658 0002179  90.2194 269.9251 14.34217451392942
IRIDIUM 175             
1 43928U 19002G   26196.20959855  .00000180  00000+0  47020-4 0  9990
2 43928  86.4512 278.8081 0005307 115.2226 244.9525 14.43627267403024
IRIDIUM 171             
1 43929U 19002H   26195.92920106  .00000035  00000+0  54782-5 0  9999
2 43929  86.3998 342.2830 0002222  94.9456 265.1993 14.34217615392934
IRIDIUM 170             
1 43930U 19002J   26195.89609361  .00000390  00000+0  57899-4 0  9999
2 43930  86.6110 341.9558 0002264  86.4132 273.7344 14.72249436403331
IRIDIUM 167             
1 43931U 19002K   26195.92285821  .00000039  00000+0  70323-5 0  9993
2 43931  86.3991 341.9991 0002286  98.7123 261.4332 14.34217754392937
IRIDIUM 181             
1 56726U 23068S   26196.11552411  .00000174  00000+0  45628-4 0  9999
2 56726  86.4474  45.1112 0002407  83.8027 276.3449 14.43312270166461
IRIDIUM 177             
1 56727U 23068T   26195.83896988  .00000540  00000+0  67857-4 0  9993
2 56727  86.1988 315.6632 0002347  95.8884 264.2605 14.80021590170455
IRIDIUM 174             
1 56728U 23068U   26195.95161968  .00000398  00000+0  59190-4 0  9992
2 56728  86.6119 342.0827 0001989  87.4290 272.7155 14.72258071170109
IRIDIUM 178             
1 56729U 23068V   26195.89557684  .00000182  00000+0  20605-4 0  9990
2 56729  86.6535  13.7786 0002314  90.8281 269.3206 14.80026130170465
IRIDIUM 179             
1 56730U 23068W   26196.02544385  .00000137  00000+0  14651-4 0  9996
2 56730  86.6767  22.7863 0002321  93.3552 266.7935 14.80033495170481
